start=new Date('2022-07-27T00:00:00.000Z').valueOf();
sats=[{"TIME_SYSTEM":"UTC","FILE":"3522226","RA_OF_ASC_NODE":"242.4494","RCS_SIZE":"LARGE","APOAPSIS":"548.322","GP_ID":"208896819","MEAN_ELEMENT_THEORY":"SGP4","REV_AT_EPOCH":"11943","BSTAR":"0.00000189690000","TLE_LINE2":"2 45663  53.0535 242.4494 0001562  66.1933 293.9219 15.06391405119435","SEMIMAJOR_AXIS":"6925.375","EPOCH":"2022-07-26T10:23:49.836480","DECAY_DATE":null,"PERIAPSIS":"546.158","NORAD_CAT_ID":"45663","PERIOD":"95.593","ELEMENT_SET_NO":"999","TLE_LINE1":"1 45663U 20035G   22207.43321570 -.00000253  00000-0  18969-5 0  9991","MEAN_ANOMALY":"293.9219","ECCENTRICITY":"0.00015620","OBJECT_ID":"2020-035G","MEAN_MOTION":"15.06391405","ARG_OF_PERICENTER":"66.1933","MEAN_MOTION_DOT":"-0.00000253","INCLINATION":"53.0535","REF_FRAME":"TEME","COUNTRY_CODE":"US","OBJECT_NAME":"STARLINK-1446","OBJECT_TYPE":"PAYLOAD","CLASSIFICATION_TYPE":"U","EPHEMERIS_TYPE":"0","LAUNCH_DATE":"2020-06-04","SITE":"AFETR","MEAN_MOTION_DDOT":"0.0000000000000","CENTER_NAME":"EARTH"},{"EPHEMERIS_TYPE":"0","CLASSIFICATION_TYPE":"U","OBJECT_TYPE":"PAYLOAD","CENTER_NAME":"EARTH","MEAN_MOTION_DDOT":"0.0000000000000","SITE":"AFETR","LAUNCH_DATE":"2020-06-04","ARG_OF_PERICENTER":"68.5328","MEAN_MOTION":"15.06386074","OBJECT_ID":"2020-035J","ECCENTRICITY":"0.00015090","OBJECT_NAME":"STARLINK-1448","COUNTRY_CODE":"US","REF_FRAME":"TEME","INCLINATION":"53.0559","MEAN_MOTION_DOT":"-0.00000370","PERIOD":"95.593","NORAD_CAT_ID":"45665","PERIAPSIS":"546.211","DECAY_DATE":null,"EPOCH":"2022-07-26T08:00:31.733568","MEAN_ANOMALY":"291.5822","TLE_LINE1":"1 45665U 20035J   22207.33370062 -.00000370  00000-0 -59157-5 0  9997","ELEMENT_SET_NO":"999","MEAN_ELEMENT_THEORY":"SGP4","GP_ID":"208897571","APOAPSIS":"548.301","RA_OF_ASC_NODE":"242.9045","RCS_SIZE":"LARGE","FILE":"3522226","TIME_SYSTEM":"UTC","SEMIMAJOR_AXIS":"6925.391","TLE_LINE2":"2 45665  53.0559 242.9045 0001509  68.5328 291.5822 15.06386074119413","BSTAR":"-0.00000591570000","REV_AT_EPOCH":"11941"},{"LAUNCH_DATE":"2020-06-04","MEAN_MOTION_DDOT":"0.0000000000000","SITE":"AFETR","CENTER_NAME":"EARTH","OBJECT_TYPE":"PAYLOAD","EPHEMERIS_TYPE":"0","CLASSIFICATION_TYPE":"U","MEAN_MOTION_DOT":"0.00001636","REF_FRAME":"TEME","INCLINATION":"53.0546","OBJECT_NAME":"STARLINK-1449","COUNTRY_CODE":"US","OBJECT_ID":"2020-035K","ECCENTRICITY":"0.00014710","ARG_OF_PERICENTER":"67.0182","MEAN_MOTION":"15.06399679","ELEMENT_SET_NO":"999","TLE_LINE1":"1 45666U 20035K   22207.86814144  .00001636  00000-0  12867-3 0  9999","MEAN_ANOMALY":"293.0962","EPOCH":"2022-07-26T20:50:07.420416","DECAY_DATE":null,"PERIAPSIS":"546.196","PERIOD":"95.592","NORAD_CAT_ID":"45666","BSTAR":"0.00012867000000","REV_AT_EPOCH":"11949","SEMIMAJOR_AXIS":"6925.350","TLE_LINE2":"2 45666  53.0546 240.4859 0001471  67.0182 293.0962 15.06399679119491","RCS_SIZE":"LARGE","RA_OF_ASC_NODE":"240.4859","FILE":"3522469","TIME_SYSTEM":"UTC","GP_ID":"208926880","APOAPSIS":"548.233","MEAN_ELEMENT_THEORY":"SGP4"},{"MEAN_MOTION_DOT":"0.00001611","INCLINATION":"53.0534","REF_FRAME":"TEME","OBJECT_NAME":"STARLINK-1450","COUNTRY_CODE":"US","ECCENTRICITY":"0.00011780","OBJECT_ID":"2020-035L","MEAN_MOTION":"15.06393314","ARG_OF_PERICENTER":"72.3673","LAUNCH_DATE":"2020-06-04","MEAN_MOTION_DDOT":"0.0000000000000","SITE":"AFETR","CENTER_NAME":"EARTH","OBJECT_TYPE":"PAYLOAD","CLASSIFICATION_TYPE":"U","EPHEMERIS_TYPE":"0","REV_AT_EPOCH":"11908","BSTAR":"0.00012701000000","SEMIMAJOR_AXIS":"6925.369","TLE_LINE2":"2 45667  53.0534 242.2975 0001178  72.3673 287.7445 15.06393314119087","TIME_SYSTEM":"UTC","FILE":"3522122","RA_OF_ASC_NODE":"242.2975","RCS_SIZE":"LARGE","APOAPSIS":"548.050","GP_ID":"208874885","MEAN_ELEMENT_THEORY":"SGP4","ELEMENT_SET_NO":"999","TLE_LINE1":"1 45667U 20035L   22207.47281223  .00001611  00000-0  12701-3 0  9993","MEAN_ANOMALY":"287.7445","EPOCH":"2022-07-26T11:20:50.976672","DECAY_DATE":null,"PERIAPSIS":"546.418","NORAD_CAT_ID":"45667","PERIOD":"95.593"},{"DECAY_DATE":null,"EPOCH":"2022-07-26T12:08:36.733344","PERIOD":"95.592","NORAD_CAT_ID":"45668","PERIAPSIS":"546.235","TLE_LINE1":"1 45668U 20035M   22207.50598071  .00001274  00000-0  10439-3 0  9991","ELEMENT_SET_NO":"999","MEAN_ANOMALY":"300.8195","GP_ID":"208896320","APOAPSIS":"548.209","RA_OF_ASC_NODE":"242.1424","RCS_SIZE":"LARGE","FILE":"3522226","TIME_SYSTEM":"UTC","MEAN_ELEMENT_THEORY":"SGP4","TLE_LINE2":"2 45668  53.0536 242.1424 0001425  59.2935 300.8195 15.06397194119458","SEMIMAJOR_AXIS":"6925.357","BSTAR":"0.00010439000000","REV_AT_EPOCH":"11945","EPHEMERIS_TYPE":"0","CLASSIFICATION_TYPE":"U","OBJECT_TYPE":"PAYLOAD","MEAN_MOTION_DDOT":"0.0000000000000","SITE":"AFETR","LAUNCH_DATE":"2020-06-04","CENTER_NAME":"EARTH","ARG_OF_PERICENTER":"59.2935","MEAN_MOTION":"15.06397194","OBJECT_ID":"2020-035M","ECCENTRICITY":"0.00014250","MEAN_MOTION_DOT":"0.00001274","COUNTRY_CODE":"US","OBJECT_NAME":"STARLINK-1451","REF_FRAME":"TEME","INCLINATION":"53.0536"},{"PERIAPSIS":"546.164","NORAD_CAT_ID":"45669","PERIOD":"95.592","EPOCH":"2022-07-26T10:07:53.407488","DECAY_DATE":null,"MEAN_ANOMALY":"292.2933","ELEMENT_SET_NO":"999","TLE_LINE1":"1 45669U 20035N   22207.42214592  .00002025  00000-0  15480-3 0  9992","MEAN_ELEMENT_THEORY":"SGP4","TIME_SYSTEM":"UTC","FILE":"3522226","RA_OF_ASC_NODE":"242.5046","RCS_SIZE":"LARGE","APOAPSIS":"548.225","GP_ID":"208897072","REV_AT_EPOCH":"11943","BSTAR":"0.00015480000000","TLE_LINE2":"2 45669  53.0536 242.5046 0001488  67.8214 292.2933 15.06406076119439","SEMIMAJOR_AXIS":"6925.330","OBJECT_TYPE":"PAYLOAD","EPHEMERIS_TYPE":"0","CLASSIFICATION_TYPE":"U","CENTER_NAME":"EARTH","LAUNCH_DATE":"2020-06-04","MEAN_MOTION_DDOT":"0.0000000000000","SITE":"AFETR","ECCENTRICITY":"0.00014880","OBJECT_ID":"2020-035N","MEAN_MOTION":"15.06406076","ARG_OF_PERICENTER":"67.8214","INCLINATION":"53.0536","REF_FRAME":"TEME","OBJECT_NAME":"STARLINK-1452","COUNTRY_CODE":"US","MEAN_MOTION_DOT":"0.00002025"},{"MEAN_ANOMALY":"300.1662","TLE_LINE1":"1 45670U 20035P   22207.41385377  .00001068  00000-0  90626-4 0  9995","ELEMENT_SET_NO":"999","NORAD_CAT_ID":"45670","PERIOD":"95.592","PERIAPSIS":"546.043","DECAY_DATE":null,"EPOCH":"2022-07-26T09:55:56.965728","TLE_LINE2":"2 45670  53.0532 212.5575 0001702  59.9496 300.1662 15.06397393119747","SEMIMAJOR_AXIS":"6925.357","REV_AT_EPOCH":"11974","BSTAR":"0.00009062600000","MEAN_ELEMENT_THEORY":"SGP4","APOAPSIS":"548.400","GP_ID":"208897813","FILE":"3522226","TIME_SYSTEM":"UTC","RA_OF_ASC_NODE":"212.5575","RCS_SIZE":"LARGE","CENTER_NAME":"EARTH","MEAN_MOTION_DDOT":"0.0000000000000","SITE":"AFETR","LAUNCH_DATE":"2020-06-04","CLASSIFICATION_TYPE":"U","EPHEMERIS_TYPE":"0","OBJECT_TYPE":"PAYLOAD","COUNTRY_CODE":"US","OBJECT_NAME":"STARLINK-1453","INCLINATION":"53.0532","REF_FRAME":"TEME","MEAN_MOTION_DOT":"0.00001068","MEAN_MOTION":"15.06397393","ARG_OF_PERICENTER":"59.9496","ECCENTRICITY":"0.00017020","OBJECT_ID":"2020-035P"},{"MEAN_ELEMENT_THEORY":"SGP4","GP_ID":"208896570","APOAPSIS":"548.303","RA_OF_ASC_NODE":"242.1890","RCS_SIZE":"LARGE","FILE":"3522226","TIME_SYSTEM":"UTC","TLE_LINE2":"2 45671  53.0538 242.1890 0001559  64.5474 295.5676 15.06396809119430","SEMIMAJOR_AXIS":"6925.358","BSTAR":"0.00004081600000","REV_AT_EPOCH":"11943","PERIOD":"95.592","NORAD_CAT_ID":"45671","PERIAPSIS":"546.144","DECAY_DATE":null,"EPOCH":"2022-07-26T11:48:45.912384","MEAN_ANOMALY":"295.5676","TLE_LINE1":"1 45671U 20035Q   22207.49219806  .00000326  00000-0  40816-4 0  9999","ELEMENT_SET_NO":"999","ARG_OF_PERICENTER":"64.5474","MEAN_MOTION":"15.06396809","OBJECT_ID":"2020-035Q","ECCENTRICITY":"0.00015590","COUNTRY_CODE":"US","OBJECT_NAME":"STARLINK-1454","REF_FRAME":"TEME","INCLINATION":"53.0538","MEAN_MOTION_DOT":"0.00000326","EPHEMERIS_TYPE":"0","CLASSIFICATION_TYPE":"U","OBJECT_TYPE":"PAYLOAD","CENTER_NAME":"EARTH","MEAN_MOTION_DDOT":"0.0000000000000","SITE":"AFETR","LAUNCH_DATE":"2020-06-04"},{"TLE_LINE2":"2 45672  53.0540 212.1555 0001728  51.5593 308.5551 15.06397973119862","SEMIMAJOR_AXIS":"6925.355","REV_AT_EPOCH":"11986","BSTAR":"-0.00003522700000","MEAN_ELEMENT_THEORY":"SGP4","APOAPSIS":"548.416","GP_ID":"208896820","FILE":"3522226","TIME_SYSTEM":"UTC","RA_OF_ASC_NODE":"212.1555","RCS_SIZE":"LARGE","MEAN_ANOMALY":"308.5551","TLE_LINE1":"1 45672U 20035R   22207.50231467 -.00000806  00000-0 -35227-4 0  9994","ELEMENT_SET_NO":"999","NORAD_CAT_ID":"45672","PERIOD":"95.592","PERIAPSIS":"546.023","DECAY_DATE":null,"EPOCH":"2022-07-26T12:03:19.987488","OBJECT_NAME":"STARLINK-1455","COUNTRY_CODE":"US","INCLINATION":"53.0540","REF_FRAME":"TEME","MEAN_MOTION_DOT":"-0.00000806","MEAN_MOTION":"15.06397973","ARG_OF_PERICENTER":"51.5593","ECCENTRICITY":"0.00017280","OBJECT_ID":"2020-035R","CENTER_NAME":"EARTH","SITE":"AFETR","MEAN_MOTION_DDOT":"0.0000000000000","LAUNCH_DATE":"2020-06-04","CLASSIFICATION_TYPE":"U","EPHEMERIS_TYPE":"0","OBJECT_TYPE":"PAYLOAD"},{"REV_AT_EPOCH":"11946","BSTAR":"0.00001432000000","TLE_LINE2":"2 45673  53.0548 241.8225 0001404  70.3243 289.7897 15.06402964119462","SEMIMAJOR_AXIS":"6925.339","MEAN_ELEMENT_THEORY":"SGP4","FILE":"3522469","TIME_SYSTEM":"UTC","RCS_SIZE":"LARGE","RA_OF_ASC_NODE":"241.8225","APOAPSIS":"548.177","GP_ID":"208926131","MEAN_ANOMALY":"289.7897","ELEMENT_SET_NO":"999","TLE_LINE1":"1 45673U 20035S   22207.57327891 -.00000068  00000-0  14320-4 0  9999","PERIAPSIS":"546.232","NORAD_CAT_ID":"45673","PERIOD":"95.592","EPOCH":"2022-07-26T13:45:31.297824","DECAY_DATE":null,"INCLINATION":"53.0548","REF_FRAME":"TEME","COUNTRY_CODE":"US","OBJECT_NAME":"STARLINK-1456","MEAN_MOTION_DOT":"-0.00000068","ECCENTRICITY":"0.00014040","OBJECT_ID":"2020-035S","MEAN_MOTION":"15.06402964","ARG_OF_PERICENTER":"70.3243","CENTER_NAME":"EARTH","LAUNCH_DATE":"2020-06-04","MEAN_MOTION_DDOT":"0.0000000000000","SITE":"AFETR","OBJECT_TYPE":"PAYLOAD","EPHEMERIS_TYPE":"0","CLASSIFICATION_TYPE":"U"}];
